NORAD_CAT_ID,OBJECT_NAME,OBJECT_TYPE,EPOCH,MEAN_MOTION,ECCENTRICITY,INCLINATION,RA_OF_ASC_NODE,ARG_OF_PERICENTER,MEAN_ANOMALY,BSTAR,MEAN_MOTION_DOT,MEAN_MOTION_DDOT,TLE_LINE0,TLE_LINE1,TLE_LINE2,SEMIMAJOR_AXIS,PERIOD,APOGEE,PERIGEE,DECAYED
51733.0,STARLINK-3525,PAYLOAD,2022-11-15 20:41:05,15.08822845,0.0002569,53.2183,350.2547,32.1928,327.9221,-3.2156e-05,-8e-06,0.0,0 STARLINK-3525,1 51733U 22016V   22319.86186608 -.00000800  00000-0 -32156-4 0  9991,2 51733  53.2183 350.2547 0002569  32.1928 327.9221 15.08822845 40920,6917.933000000001,95.439,541.575,538.021,0.0
51733.0,STARLINK-3525,PAYLOAD,2022-11-16 03:02:37,15.0882674,0.0002609,53.2181,349.0651,32.7031,327.4123,4.5332e-06,-2.16e-06,0.0,0 STARLINK-3525,1 51733U 22016V   22320.12682548 -.00000216  00000-0  45332-5 0  9997,2 51733  53.2181 349.0651 0002609  32.7031 327.4123 15.08826740 42023,6917.920999999999,95.438,541.591,537.981,0.0
51733.0,STARLINK-3525,PAYLOAD,2022-11-16 09:24:10,15.08831681,0.0002565,53.2181,347.8756,33.6942,326.4213,5.9992e-05,6.66e-06,0.0,0 STARLINK-3525,1 51733U 22016V   22320.39178395  .00000666  00000-0  59992-4 0  9990,2 51733  53.2181 347.8756 0002565  33.6942 326.4213 15.08831681 41003,6917.906,95.438,541.545,537.996,0.0
51733.0,STARLINK-3525,PAYLOAD,2022-11-16 18:56:28,15.08839797,0.0002617,53.2181,346.0916,34.886,325.2303,0.0001221,1.655e-05,0.0,0 STARLINK-3525,1 51733U 22016V   22320.78921974  .00001655  00000-0  12210-3 0  9992,2 51733  53.2181 346.0916 0002617  34.8860 325.2303 15.08839797 42129,6917.880999999999,95.438,541.556,537.936,0.0
51733.0,STARLINK-3525,PAYLOAD,2022-11-17 10:50:20,15.08842155,0.0002709,53.218,343.1185,32.6977,327.4182,0.00039823,6.056e-05,0.0,0 STARLINK-3525,1 51733U 22016V   22321.45162372  .00006056  00000-0  39823-3 0  9995,2 51733  53.2180 343.1185 0002709  32.6977 327.4182 15.08842155 41165,6917.874,95.437,541.613,537.865,0.0
51733.0,STARLINK-3525,PAYLOAD,2022-11-17 18:47:16,15.08841079,0.0002762,53.2175,341.6315,33.7755,326.3412,0.00021309,3.105e-05,0.0,0 STARLINK-3525,1 51733U 22016V   22321.78282446  .00003105  00000-0  21309-3 0  9998,2 51733  53.2175 341.6315 0002762  33.7755 326.3412 15.08841079 41216,6917.877,95.437,541.653,537.831,0.0
51733.0,STARLINK-3525,PAYLOAD,2022-11-18 01:08:48,15.08846312,0.0002763,53.2173,340.4416,33.5288,326.5879,0.00026007,3.854e-05,0.0,0 STARLINK-3525,1 51733U 22016V   22322.04778200  .00003854  00000-0  26007-3 0  9997,2 51733  53.2173 340.4416 0002763  33.5288 326.5879 15.08846312 42319,6917.861,95.437,541.638,537.815,0.0
51733.0,STARLINK-3525,PAYLOAD,2022-11-18 07:30:20,15.08845671,0.0002792,53.2175,339.2525,33.9659,326.1511,0.00021478,3.132e-05,0.0,0 STARLINK-3525,1 51733U 22016V   22322.31274120  .00003132  00000-0  21478-3 0  9995,2 51733  53.2175 339.2525 0002792  33.9659 326.1511 15.08845671 41298,6917.863,95.437,541.66,537.797,0.0
51733.0,STARLINK-3525,PAYLOAD,2022-11-18 18:38:02,15.08844449,0.0002794,53.2176,337.1708,34.6189,325.4985,9.6828e-05,1.253e-05,0.0,0 STARLINK-3525,1 51733U 22016V   22322.77642236  .00001253  00000-0  96828-4 0  9996,2 51733  53.2176 337.1708 0002794  34.6189 325.4985 15.08844449 42422,6917.8669999999975,95.437,541.665,537.799,0.0
51733.0,STARLINK-3525,PAYLOAD,2022-11-19 07:21:07,15.08856548,0.0002765,53.2175,334.7918,34.3218,325.7953,0.00026102,3.87e-05,0.0,0 STARLINK-3525,1 51733U 22016V   22323.30633448  .00003870  00000-0  26102-3 0  9995,2 51733  53.2175 334.7918 0002765  34.3218 325.7953 15.08856548 41447,6917.83,95.437,541.6080000000002,537.7819999999998,0.0
51733.0,STARLINK-3525,PAYLOAD,2022-11-19 20:04:12,15.08846848,0.000269,53.2177,332.4133,33.371,326.7452,0.00012755,1.742e-05,0.0,0 STARLINK-3525,1 51733U 22016V   22323.83625646  .00001742  00000-0  12755-3 0  9999,2 51733  53.2177 332.4133 0002690  33.3710 326.7452 15.08846848 41522,6917.859,95.437,541.585,537.864,0.0
51733.0,STARLINK-3525,PAYLOAD,2022-11-20 00:50:21,15.08849788,0.0002788,53.2171,331.5207,34.3962,325.721,0.0001113,1.484e-05,0.0,0 STARLINK-3525,1 51733U 22016V   22324.03497408  .00001484  00000-0  11130-3 0  9994,2 51733  53.2171 331.5207 0002788  34.3962 325.7210 15.08849788 42614,6917.85,95.437,541.644,537.7869999999998,0.0
51733.0,STARLINK-3525,PAYLOAD,2022-11-20 10:22:40,15.0884633,0.0002702,53.2172,329.7362,36.2199,323.8976,6.841699999999999e-05,8.01e-06,0.0,0 STARLINK-3525,1 51733U 22016V   22324.43241499  .00000801  00000-0  68417-4 0  9998,2 51733  53.2172 329.7362 0002702  36.2199 323.8976 15.08846330 41612,6917.861,95.437,541.595,537.857,0.0
51733.0,STARLINK-3525,PAYLOAD,2022-11-21 03:51:55,15.08844038,0.0002917,53.2168,326.4651,36.7637,323.3555,1.5463e-05,-4.3e-07,0.0,0 STARLINK-3525,1 51733U 22016V   22325.16105495 -.00000043  00000-0  15463-4 0  9996,2 51733  53.2168 326.4651 0002917  36.7637 323.3555 15.08844038 42782,6917.868,95.437,541.751,537.715,0.0
51733.0,STARLINK-3525,PAYLOAD,2022-11-21 10:13:28,15.08840646,0.0002803,53.2183,325.2761,35.7763,324.3416,-4.6185e-05,-1.024e-05,0.0,0 STARLINK-3525,1 51733U 22016V   22325.42601905 -.00001024  00000-0 -46185-4 0  9998,2 51733  53.2183 325.2761 0002803  35.7763 324.3416 15.08840646 41766,6917.878000000002,95.438,541.682,537.804,0.0
51733.0,STARLINK-3525,PAYLOAD,2022-11-21 16:35:00,15.08841131,0.0002833999999999,53.2184,324.0867,36.2445,323.8738,-6.8766e-05,-1.383e-05,0.0,0 STARLINK-3525,1 51733U 22016V   22325.69097887 -.00001383  00000-0 -68766-4 0  9992,2 51733  53.2184 324.0867 0002834  36.2445 323.8738 15.08841131 42861,6917.877,95.437,541.702,537.781,0.0
51733.0,STARLINK-3525,PAYLOAD,2022-11-22 05:18:04,15.0884857,0.0002822,53.2185,321.7079,35.976,324.1422,6.8615e-05,8.04e-06,0.0,0 STARLINK-3525,1 51733U 22016V   22326.22088893  .00000804  00000-0  68615-4 0  9997,2 51733  53.2185 321.7079 0002822  35.9760 324.1422 15.08848570 42941,6917.854,95.437,541.6709999999998,537.7669999999998,0.0
51733.0,STARLINK-3525,PAYLOAD,2022-11-22 10:04:14,15.08846716,0.0002785,53.2194,320.8175,36.0443,324.0736,4.1574e-05,3.73e-06,0.0,0 STARLINK-3525,1 51733U 22016V   22326.41961054  .00000373  00000-0  41574-4 0  9993,2 51733  53.2194 320.8175 0002785  36.0443 324.0736 15.08846716 41919,6917.86,95.437,541.651,537.798,0.0
51733.0,STARLINK-3525,PAYLOAD,2022-11-23 03:33:29,15.08830398,0.0002812,53.2179,317.5448,32.6787,327.4379,4.99e-05,5.06e-06,0.0,0 STARLINK-3525,1 51733U 22016V   22327.14826226  .00000506  00000-0  49900-4 0  9994,2 51733  53.2179 317.5448 0002812  32.6787 327.4379 15.08830398 43081,6917.91,95.438,541.72,537.8290000000002,0.0
51733.0,STARLINK-3525,PAYLOAD,2022-11-23 09:55:02,15.08827171,0.000281,53.2183,316.3561,34.653,325.4645,1.4088e-05,-6.4e-07,0.0,0 STARLINK-3525,1 51733U 22016V   22327.41322652 -.00000064  00000-0  14088-4 0  9997,2 51733  53.2183 316.3561 0002810  34.6530 325.4645 15.08827171 42061,6917.92,95.438,541.729,537.841,0.0
51733.0,STARLINK-3525,PAYLOAD,2022-11-24 04:59:39,15.0884652,0.0002648999999999,53.2183,312.7872,35.98,324.137,3.4027e-05,2.53e-06,0.0,0 STARLINK-3525,1 51733U 22016V   22328.20809348  .00000253  00000-0  34027-4 0  9991,2 51733  53.2183 312.7872 0002649  35.9800 324.1370 15.08846520 43241,6917.86,95.437,541.558,537.893,0.0
51733.0,STARLINK-3525,PAYLOAD,2022-11-24 09:45:48,15.08842567,0.0002655,53.2181,311.8953,34.672,325.4444,1.1158e-06,-2.71e-06,0.0,0 STARLINK-3525,1 51733U 22016V   22328.40681631 -.00000271  00000-0  11158-5 0  9998,2 51733  53.2181 311.8953 0002655  34.6720 325.4444 15.08842567 42212,6917.873000000001,95.437,541.5740000000002,537.901,0.0
51733.0,STARLINK-3525,PAYLOAD,2022-11-24 16:07:21,15.08840969,0.0002858,53.2179,310.7058,33.481,326.6362,6.2969e-05,7.14e-06,0.0,0 STARLINK-3525,1 51733U 22016V   22328.67177609  .00000714  00000-0  62969-4 0  9998,2 51733  53.2179 310.7058 0002858  33.4810 326.6362 15.08840969 43313,6917.877,95.437,541.72,537.765,0.0
51733.0,STARLINK-3525,PAYLOAD,2022-11-25 06:25:49,15.08855227,0.0002606,53.2178,308.0293,37.8697,322.2478,-0.00010379,-1.941e-05,0.0,0 STARLINK-3525,1 51733U 22016V   22329.26792998 -.00001941  00000-0 -10379-3 0  9990,2 51733  53.2178 308.0293 0002606  37.8697 322.2478 15.08855227 43408,6917.834,95.437,541.502,537.896,0.0
51733.0,STARLINK-3525,PAYLOAD,2022-11-25 15:58:08,15.08837304,0.0002667,53.2177,306.2453,34.6453,325.4713,6.9409e-05,8.16e-06,0.0,0 STARLINK-3525,1 51733U 22016V   22329.66537711  .00000816  00000-0  69409-4 0  9991,2 51733  53.2177 306.2453 0002667  34.6453 325.4713 15.08837304 43466,6917.889,95.438,541.599,537.909,0.0
51733.0,STARLINK-3525,PAYLOAD,2022-11-26 04:41:13,15.08842285,0.0002916,53.2179,303.8664,33.8758,326.242,5.7615e-05,6.29e-06,0.0,0 STARLINK-3525,1 51733U 22016V   22330.19529297  .00000629  00000-0  57615-4 0  9999,2 51733  53.2179 303.8664 0002916  33.8758 326.2420 15.08842285 42480,6917.873000000001,95.437,541.756,537.721,0.0
51733.0,STARLINK-3525,PAYLOAD,2022-11-26 15:48:55,15.08842366,0.0002958,53.2182,301.785,35.1528,324.9659,4.5615e-05,4.37e-06,0.0,0 STARLINK-3525,1 51733U 22016V   22330.65897291  .00000437  00000-0  45615-4 0  9996,2 51733  53.2182 301.7850 0002958  35.1528 324.9659 15.08842366 42551,6917.873000000001,95.437,541.784,537.692,0.0
51733.0,STARLINK-3525,PAYLOAD,2022-11-27 04:32:00,15.08844836,0.0002961,53.2183,299.4066,33.3004,326.8174,-8.1669e-07,-3.02e-06,0.0,0 STARLINK-3525,1 51733U 22016V   22331.18888983 -.00000302  00000-0 -81669-6 0  9997,2 51733  53.2183 299.4066 0002961  33.3004 326.8174 15.08844836 43690,6917.866,95.437,541.779,537.682,0.0
51733.0,STARLINK-3525,PAYLOAD,2022-11-27 07:42:46,15.08839902,0.0002858,53.2192,298.8114,33.4634,326.6538,2.662e-05,1.35e-06,0.0,0 STARLINK-3525,1 51733U 22016V   22331.32137166  .00000135  00000-0  26620-4 0  9999,2 51733  53.2192 298.8114 0002858  33.4634 326.6538 15.08839902 42657,6917.880999999999,95.438,541.7230000000002,537.769,0.0
